STARLINK-1961_new
1 17562C 21009Q   21326.12846765  .00009275  00000-0  62135-3 0  3266
2 17562  53.0537 223.1695 0001847  66.3269  85.5541 15.06392862    10
STARLINK-1961_old
1 27562C 21009Q   21325.13273299  .00007994  00000-0  53566-3 0  3255
2 27562  53.0544 227.6392 0001773  64.9115  84.0909 15.06384448    16
